[{"OBJECT_NAME":"ONEWEB-0410","OBJECT_ID":"2022-012A","EPOCH":"2026-03-09T21:25:36.452064","MEAN_MOTION":13.17649976,"ECCENTRICITY":0.00017226,"INCLINATION":87.916,"RA_OF_ASC_NODE":25.5647,"ARG_OF_PERICENTER":35.0074,"MEAN_ANOMALY":325.1171,"EPHEMERIS_TYPE":0,"CLASSIFICATION_TYPE":"U","NORAD_CAT_ID":51622,"ELEMENT_SET_NO":999,"REV_AT_EPOCH":20062,"BSTAR":6.2388185e-5,"MEAN_MOTION_DOT":3.7e-7,"MEAN_MOTION_DDOT":0},{"OBJECT_NAME":"SL-14 DEB","OBJECT_ID":"1991-056S","EPOCH":"2026-03-09T08:35:20.457888","MEAN_MOTION":13.21714724,"ECCENTRICITY":0.00252218,"INCLINATION":82.5887,"RA_OF_ASC_NODE":214.289,"ARG_OF_PERICENTER":211.1552,"MEAN_ANOMALY":148.8079,"EPHEMERIS_TYPE":0,"CLASSIFICATION_TYPE":"U","NORAD_CAT_ID":45280,"ELEMENT_SET_NO":999,"REV_AT_EPOCH":29192,"BSTAR":0.0034035227,"MEAN_MOTION_DOT":1.418e-5,"MEAN_MOTION_DDOT":0}]
